[{"OBJECT_NAME":"LEMUR-2-GREENBERG","OBJECT_ID":"2017-042N","EPOCH":"2026-03-09T11:05:17.256192","MEAN_MOTION":15.27971352,"ECCENTRICITY":0.00091572,"INCLINATION":97.3781,"RA_OF_ASC_NODE":249.8007,"ARG_OF_PERICENTER":4.0119,"MEAN_ANOMALY":356.1192,"EPHEMERIS_TYPE":0,"CLASSIFICATION_TYPE":"U","NORAD_CAT_ID":42837,"ELEMENT_SET_NO":999,"REV_AT_EPOCH":47314,"BSTAR":0.00072539172,"MEAN_MOTION_DOT":0.00019778,"MEAN_MOTION_DDOT":0},{"OBJECT_NAME":"STARLINK-32243","OBJECT_ID":"2024-138N","EPOCH":"2026-03-09T22:20:50.063136","MEAN_MOTION":15.30186409,"ECCENTRICITY":0.00011117,"INCLINATION":53.161,"RA_OF_ASC_NODE":308.5466,"ARG_OF_PERICENTER":78.3415,"MEAN_ANOMALY":281.7711,"EPHEMERIS_TYPE":0,"CLASSIFICATION_TYPE":"U","NORAD_CAT_ID":60367,"ELEMENT_SET_NO":999,"REV_AT_EPOCH":9066,"BSTAR":7.2806564e-5,"MEAN_MOTION_DOT":1.797e-5,"MEAN_MOTION_DDOT":0}]
